[{"OBJECT_NAME":"LYNK TOWER 6","OBJECT_ID":"2024-043AB","EPOCH":"2026-03-09T21:28:38.303328","MEAN_MOTION":15.29548678,"ECCENTRICITY":0.00097492,"INCLINATION":97.5426,"RA_OF_ASC_NODE":204.1954,"ARG_OF_PERICENTER":232.0253,"MEAN_ANOMALY":128.0107,"EPHEMERIS_TYPE":0,"CLASSIFICATION_TYPE":"U","NORAD_CAT_ID":59123,"ELEMENT_SET_NO":999,"REV_AT_EPOCH":11184,"BSTAR":0.00040142146,"MEAN_MOTION_DOT":0.0001144,"MEAN_MOTION_DDOT":0},{"OBJECT_NAME":"STARLINK-33966","OBJECT_ID":"2025-117A","EPOCH":"2026-03-09T22:20:25.281888","MEAN_MOTION":15.30218456,"ECCENTRICITY":0.00015058,"INCLINATION":53.1602,"RA_OF_ASC_NODE":38.4181,"ARG_OF_PERICENTER":97.1304,"MEAN_ANOMALY":262.9868,"EPHEMERIS_TYPE":0,"CLASSIFICATION_TYPE":"U","NORAD_CAT_ID":64203,"ELEMENT_SET_NO":999,"REV_AT_EPOCH":4459,"BSTAR":0.00095827645,"MEAN_MOTION_DOT":0.00028146,"MEAN_MOTION_DDOT":0}]
